GXIBA-1                 
1 67684U 98067YA  26077.11883881  .00064260  00000+0  91268-3 0  9997
2 67684  51.6318  29.4450 0011823 205.4232 154.6179 15.55718972  6104
CORAL                   
1 67685U 98067YB  26077.15503373  .00035685  00000+0  56583-3 0  9997
2 67685  51.6324  29.6861 0011587 212.5477 147.4800 15.52965300  6104
ISS OBJECT YC           
1 67686U 98067YC  26077.08177038  .00042990  00000+0  66325-3 0  9997
2 67686  51.6325  29.9492 0008542 181.6034 178.4931 15.53669122  6092
LEOPARD                 
1 67687U 98067YD  26077.28699325  .00033363  00000+0  53459-3 0  9996
2 67687  51.6320  29.0693 0008223 185.7311 174.3586 15.52744330  6041
ISS OBJECT YE           
1 67688U 98067YE  26077.15016866  .00039840  00000+0  62263-3 0  9995
2 67688  51.6321  29.6558 0008334 182.6297 177.4651 15.53349847  6021
CREW DRAGON 12          
1 67796U 26031A   26077.16145852  .00007208  00000+0  14196-3 0  9991
2 67796  51.6338  30.4771 0006242 203.4545 156.6159 15.48351952557566
